{"type": "FeatureCollection", "features": [ {"type": "Feature", "properties": {"norad_id": 35037, "name": "COSMOS 2251 DEB", "group": "cosmos-2251-debris", "lat": 19.109675549487957, "lon": 155.12736228060018, "alt_km": 251.84294592986953, "timestamp": "2025-12-06T09:34:17.310003+00:00", "meta": {"OBJECT_NAME": "COSMOS 2251 DEB", "OBJECT_ID": "1993-036AHA", "EPOCH": "2025-11-07T11:23:37.197312", "MEAN_MOTION": 15.53719687, "ECCENTRICITY": 0.0010282, "INCLINATION": 73.9601, "RA_OF_ASC_NODE": 214.7185, "ARG_OF_PERICENTER": 129.4999, "MEAN_ANOMALY": 230.7127, "EPHEMERIS_TYPE": 0, "CLASSIFICATION_TYPE": "U", "NORAD_CAT_ID": 35037, "ELEMENT_SET_NO": 999, "REV_AT_EPOCH": 66656, "BSTAR": 0.0068953187, "MEAN_MOTION_DOT": 0.00469331, "MEAN_MOTION_DDOT": 0}, "tle": {"line1": "1 35037U 93036AHA 25311.47473608  .00469331  00000+0  68953-2 0  9998", "line2": "2 35037  73.9601 214.7185 0010282 129.4999 230.7127 15.53719687666563"}}, "geometry": {"type": "Point", "coordinates": [155.12736228060018, 19.109675549487957]}}, {"type": "Feature", "properties": {"norad_id": 35038, "name": "COSMOS 2251 DEB", "group": "cosmos-2251-debris", "lat": -60.895223621487276, "lon": -95.23993771959813, "alt_km": 888.5513845688756, "timestamp": "2025-12-06T09:34:17.310013+00:00", "meta": {"OBJECT_NAME": "COSMOS 2251 DEB", "OBJECT_ID": "1993-036AHB", "EPOCH": "2025-12-02T22:25:29.053056", "MEAN_MOTION": 14.25054791, "ECCENTRICITY": 0.01136239, "INCLINATION": 74.1068, "RA_OF_ASC_NODE": 60.197, "ARG_OF_PERICENTER": 46.834, "MEAN_ANOMALY": 72.6585, "EPHEMERIS_TYPE": 0, "CLASSIFICATION_TYPE": "U", "NORAD_CAT_ID": 35038, "ELEMENT_SET_NO": 999, "REV_AT_EPOCH": 85429, "BSTAR": 0.001245273, "MEAN_MOTION_DOT": 3.098e-05, "MEAN_MOTION_DDOT": 0}, "tle": {"line1": "1 35038U 93036AHB 25336.93436404  .00003098  00000+0  12453-2 0  9998", "line2": "2 35038  74.1068  60.1970 0113623  46.8340  72.6585 14.25054791854290"}}, "geometry": {"type": "Point", "coordinates": [-95.23993771959813, -60.895223621487276]}}, {"type": "Feature", "properties": {"norad_id": 35043, "name": "COSMOS 2251 DEB", "group": "cosmos-2251-debris", "lat": -9.194199932409523, "lon": 55.402512487527865, "alt_km": 634.2164545114701, "timestamp": "2025-12-06T09:34:17.310023+00:00", "meta": {"OBJECT_NAME": "COSMOS 2251 DEB", "OBJECT_ID": "1993-036AHG", "EPOCH": "2025-12-04T12:04:43.932000", "MEAN_MOTION": 14.76234637, "ECCENTRICITY": 0.0098548, "INCLINATION": 73.9539, "RA_OF_ASC_NODE": 61.8026, "ARG_OF_PERICENTER": 272.4177, "MEAN_ANOMALY": 86.5717, "EPHEMERIS_TYPE": 0, "CLASSIFICATION_TYPE": "U", "NORAD_CAT_ID": 35043, "ELEMENT_SET_NO": 999, "REV_AT_EPOCH": 67297, "BSTAR": 0.0098371, "MEAN_MOTION_DOT": 0.00074481, "MEAN_MOTION_DDOT": 0}, "tle": {"line1": "1 35043U 93036AHG 25338.50328625  .00074481  00000+0  98371-2 0  9991", "line2": "2 35043  73.9539  61.8026 0098548 272.4177  86.5717 14.76234637672978"}}, "geometry": {"type": "Point", "coordinates": [55.402512487527865, -9.194199932409523]}}, {"type": "Feature", "properties": {"norad_id": 35045, "name": "COSMOS 2251 DEB", "group": "cosmos-2251-debris", "lat": 59.387365322415725, "lon": -145.69462221236748, "alt_km": 1017.3487941450139, "timestamp": "2025-12-06T09:34:17.310033+00:00", "meta": {"OBJECT_NAME": "COSMOS 2251 DEB", "OBJECT_ID": "1993-036AHJ", "EPOCH": "2025-12-05T22:43:31.753056", "MEAN_MOTION": 14.00363067, "ECCENTRICITY": 0.01832968, "INCLINATION": 73.7195, "RA_OF_ASC_NODE": 64.6998, "ARG_OF_PERICENTER": 307.6649, "MEAN_ANOMALY": 50.7975, "EPHEMERIS_TYPE": 0, "CLASSIFICATION_TYPE": "U", "NORAD_CAT_ID": 35045, "ELEMENT_SET_NO": 999, "REV_AT_EPOCH": 84548, "BSTAR": 0.0010307823, "MEAN_MOTION_DOT": 1.738e-05, "MEAN_MOTION_DDOT": 0}, "tle": {"line1": "1 35045U 93036AHJ 25339.94689529  .00001738  00000+0  10308-2 0  9994", "line2": "2 35045  73.7195  64.6998 0183296 307.6649  50.7975 14.00363067845489"}}, "geometry": {"type": "Point", "coordinates": [-145.69462221236748, 59.387365322415725]}}, {"type": "Feature", "properties": {"norad_id": 35060, "name": "COSMOS 2251 DEB", "group": "cosmos-2251-debris", "lat": 16.20927582923672, "lon": 71.30487010071762, "alt_km": 766.415920176275, "timestamp": "2025-12-06T09:34:17.310058+00:00", "meta": {"OBJECT_NAME": "COSMOS 2251 DEB", "OBJECT_ID": "1993-036AHP", "EPOCH": "2025-11-28T02:37:07.839264", "MEAN_MOTION": 14.41547968, "ECCENTRICITY": 0.00179641, "INCLINATION": 74.0363, "RA_OF_ASC_NODE": 271.4275, "ARG_OF_PERICENTER": 359.5881, "MEAN_ANOMALY": 0.5257, "EPHEMERIS_TYPE": 0, "CLASSIFICATION_TYPE": "U", "NORAD_CAT_ID": 35060, "ELEMENT_SET_NO": 999, "REV_AT_EPOCH": 87031, "BSTAR": 0.0004076845, "MEAN_MOTION_DOT": 1.301e-05, "MEAN_MOTION_DDOT": 0}, "tle": {"line1": "1 35060U 93036AHP 25332.10911851  .00001301  00000+0  40768-3 0  9998", "line2": "2 35060  74.0363 271.4275 0017964 359.5881   0.5257 14.41547968870310"}}, "geometry": {"type": "Point", "coordinates": [71.30487010071762, 16.20927582923672]}}, {"type": "Feature", "properties": {"norad_id": 35061, "name": "COSMOS 2251 DEB", "group": "cosmos-2251-debris", "lat": 9.214293525127882, "lon": 135.3106718577577, "alt_km": 674.0408655292404, "timestamp": "2025-12-06T09:34:17.310069+00:00", "meta": {"OBJECT_NAME": "COSMOS 2251 DEB", "OBJECT_ID": "1993-036AHQ", "EPOCH": "2025-12-03T05:33:06.011712", "MEAN_MOTION": 14.67690423, "ECCENTRICITY": 0.0038808, "INCLINATION": 74.0447, "RA_OF_ASC_NODE": 324.0838, "ARG_OF_PERICENTER": 77.8847, "MEAN_ANOMALY": 282.6667, "EPHEMERIS_TYPE": 0, "CLASSIFICATION_TYPE": "U", "NORAD_CAT_ID": 35061, "ELEMENT_SET_NO": 999, "REV_AT_EPOCH": 88435, "BSTAR": 0.0010187, "MEAN_MOTION_DOT": 5.838e-05, "MEAN_MOTION_DDOT": 0}, "tle": {"line1": "1 35061U 93036AHQ 25337.23131958  .00005838  00000+0  10187-2 0  9990", "line2": "2 35061  74.0447 324.0838 0038808  77.8847 282.6667 14.67690423884356"}}, "geometry": {"type": "Point", "coordinates": [135.3106718577577, 9.214293525127882]}}, {"type": "Feature", "properties": {"norad_id": 35062, "name": "COSMOS 2251 DEB", "group": "cosmos-2251-debris", "lat": 8.371448927832235, "lon": -77.7910441184463, "alt_km": 776.8021348791453, "timestamp": "2025-12-06T09:34:17.310079+00:00", "meta": {"OBJECT_NAME": "COSMOS 2251 DEB", "OBJECT_ID": "1993-036AHR", "EPOCH": "2025-12-01T08:58:12.976320", "MEAN_MOTION": 14.22770227, "ECCENTRICITY": 0.01291712, "INCLINATION": 74.0782, "RA_OF_ASC_NODE": 113.6209, "ARG_OF_PERICENTER": 116.5829, "MEAN_ANOMALY": 244.8622, "EPHEMERIS_TYPE": 0, "CLASSIFICATION_TYPE": "U", "NORAD_CAT_ID": 35062, "ELEMENT_SET_NO": 999, "REV_AT_EPOCH": 85337, "BSTAR": 0.0022023834, "MEAN_MOTION_DOT": 5.359e-05, "MEAN_MOTION_DDOT": 0}, "tle": {"line1": "1 35062U 93036AHR 25335.37376130  .00005359  00000+0  22024-2 0  9998", "line2": "2 35062  74.0782 113.6209 0129171 116.5829 244.8622 14.22770227853379"}}, "geometry": {"type": "Point", "coordinates": [-77.7910441184463, 8.371448927832235]}}, {"type": "Feature", "properties": {"norad_id": 35065, "name": "COSMOS 2251 DEB", "group": "cosmos-2251-debris", "lat": 53.6412046481784, "lon": -130.9189437986322, "alt_km": 733.0392400396704, "timestamp": "2025-12-06T09:34:17.310090+00:00", "meta": {"OBJECT_NAME": "COSMOS 2251 DEB", "OBJECT_ID": "1993-036AHU", "EPOCH": "2025-12-05T21:41:03.860160", "MEAN_MOTION": 14.45696164, "ECCENTRICITY": 0.00196068, "INCLINATION": 74.0203, "RA_OF_ASC_NODE": 207.0973, "ARG_OF_PERICENTER": 333.182, "MEAN_ANOMALY": 26.8323, "EPHEMERIS_TYPE": 0, "CLASSIFICATION_TYPE": "U", "NORAD_CAT_ID": 35065, "ELEMENT_SET_NO": 999, "REV_AT_EPOCH": 68252, "BSTAR": 0.00075039206, "MEAN_MOTION_DOT": 2.636e-05, "MEAN_MOTION_DDOT": 0}, "tle": {"line1": "1 35065U 93036AHU 25339.90351690  .00002636  00000+0  75039-3 0  9998", "line2": "2 35065  74.0203 207.0973 0019606 333.1820  26.8323 14.45696164682520"}}, "geometry": {"type": "Point", "coordinates": [-130.9189437986322, 53.6412046481784]}}, {"type": "Feature", "properties": {"norad_id": 35071, "name": "COSMOS 2251 DEB", "group": "cosmos-2251-debris", "lat": 38.9738945097252, "lon": -160.0402027324888, "alt_km": 519.2818854248826, "timestamp": "2025-12-06T09:34:17.310100+00:00", "meta": {"OBJECT_NAME": "COSMOS 2251 DEB", "OBJECT_ID": "1993-036AJA", "EPOCH": "2025-12-05T07:50:09.384000", "MEAN_MOTION": 15.03238843, "ECCENTRICITY": 0.00683145, "INCLINATION": 73.9311, "RA_OF_ASC_NODE": 188.6779, "ARG_OF_PERICENTER": 87.4008, "MEAN_ANOMALY": 273.4998, "EPHEMERIS_TYPE": 0, "CLASSIFICATION_TYPE": "U", "NORAD_CAT_ID": 35071, "ELEMENT_SET_NO": 999, "REV_AT_EPOCH": 67425, "BSTAR": 0.0012723531, "MEAN_MOTION_DOT": 0.0001814, "MEAN_MOTION_DDOT": 0}, "tle": {"line1": "1 35071U 93036AJA 25339.32649750  .00018140  00000+0  12724-2 0  9996", "line2": "2 35071  73.9311 188.6779 0068314  87.4008 273.4998 15.03238843674250"}}, "geometry": {"type": "Point", "coordinates": [-160.0402027324888, 38.9738945097252]}}, {"type": "Feature", "properties": {"norad_id": 35073, "name": "COSMOS 2251 DEB", "group": "cosmos-2251-debris", "lat": -37.061700587348696, "lon": 176.01460523042633, "alt_km": 577.9007301584888, "timestamp": "2025-12-06T09:34:17.310110+00:00", "meta": {"OBJECT_NAME": "COSMOS 2251 DEB", "OBJECT_ID": "1993-036AJC", "EPOCH": "2025-12-05T18:11:38.167296", "MEAN_MOTION": 14.9993709, "ECCENTRICITY": 0.00102838, "INCLINATION": 74.0007, "RA_OF_ASC_NODE": 344.8036, "ARG_OF_PERICENTER": 85.9813, "MEAN_ANOMALY": 274.2549, "EPHEMERIS_TYPE": 0, "CLASSIFICATION_TYPE": "U", "NORAD_CAT_ID": 35073, "ELEMENT_SET_NO": 999, "REV_AT_EPOCH": 67374, "BSTAR": 0.004299626, "MEAN_MOTION_DOT": 0.0005383, "MEAN_MOTION_DDOT": 0}, "tle": {"line1": "1 35073U 93036AJC 25339.75808064  .00053830  00000+0  42996-2 0  9999", "line2": "2 35073  74.0007 344.8036 0010283  85.9813 274.2549 14.99937090673745"}}, "geometry": {"type": "Point", "coordinates": [176.01460523042633, -37.061700587348696]}}]}